{
  "type": "FeatureCollection",
  "features": [
    {
      "type": "Feature",
      "properties": {
        "norad_id": 28054,
        "name": "DMSP 5D-3 F16 (USA 172)",
        "group": "weather",
        "lat": 6.208077572140204,
        "lon": -1.1914175520617312,
        "alt_km": 842.2349508488678,
        "timestamp": "2025-12-08T08:59:00.414480+00:00",
        "meta_object_name": "DMSP 5D-3 F16 (USA 172)",
        "meta_object_id": "2003-048A",
        "meta_epoch": "2025-12-07T23:03:43.678080",
        "meta_mean_motion": 14.14421497,
        "meta_eccentricity": 0.00066839,
        "meta_inclination": 99.0048,
        "meta_ra_of_asc_node": 359.3803,
        "meta_arg_of_pericenter": 335.6309,
        "meta_mean_anomaly": 86.9608,
        "meta_ephemeris_type": 0,
        "meta_classification_type": "U",
        "meta_norad_cat_id": 28054,
        "meta_element_set_no": 999,
        "meta_rev_at_epoch": 14245,
        "meta_bstar": 0.00013689699,
        "meta_mean_motion_dot": 2.17e-06,
        "meta_mean_motion_ddot": 0,
        "tle_line1": "1 28054U 03048A   25341.96092220  .00000217  00000+0  13690-3 0  9990",
        "tle_line2": "2 28054  99.0048 359.3803 0006683 335.6309  86.9608 14.14421497142454"
      },
      "geometry": {
        "type": "Point",
        "coordinates": [
          -1.1914175520617312,
          6.208077572140204
        ]
      }
    },
    {
      "type": "Feature",
      "properties": {
        "norad_id": 28912,
        "name": "METEOSAT-9 (MSG-2)",
        "group": "weather",
        "lat": -3.317113231772664,
        "lon": -102.4697812574287,
        "alt_km": 35769.79698523038,
        "timestamp": "2025-12-08T08:59:00.414536+00:00",
        "meta_object_name": "METEOSAT-9 (MSG-2)",
        "meta_object_id": "2005-049B",
        "meta_epoch": "2025-12-07T20:41:55.425120",
        "meta_mean_motion": 1.00273689,
        "meta_eccentricity": 0.00039018,
        "meta_inclination": 8.9285,
        "meta_ra_of_asc_node": 56.0211,
        "meta_arg_of_pericenter": 189.463,
        "meta_mean_anomaly": 187.4925,
        "meta_ephemeris_type": 0,
        "meta_classification_type": "U",
        "meta_norad_cat_id": 28912,
        "meta_element_set_no": 999,
        "meta_rev_at_epoch": 508,
        "meta_bstar": 0,
        "meta_mean_motion_dot": 1.24e-06,
        "meta_mean_motion_ddot": 0,
        "tle_line1": "1 28912U 05049B   25341.86244705  .00000124  00000+0  00000+0 0  9996",
        "tle_line2": "2 28912   8.9285  56.0211 0003901 189.4630 187.4925  1.00273689  5080"
      },
      "geometry": {
        "type": "Point",
        "coordinates": [
          -102.4697812574287,
          -3.317113231772664
        ]
      }
    },
    {
      "type": "Feature",
      "properties": {
        "norad_id": 29522,
        "name": "DMSP 5D-3 F17 (USA 191)",
        "group": "weather",
        "lat": -59.72552835605156,
        "lon": 3.13220670022248,
        "alt_km": 846.425727808004,
        "timestamp": "2025-12-08T08:59:00.414557+00:00",
        "meta_object_name": "DMSP 5D-3 F17 (USA 191)",
        "meta_object_id": "2006-050A",
        "meta_epoch": "2025-12-07T23:05:16.212480",
        "meta_mean_motion": 14.14916411,
        "meta_eccentricity": 0.00092661,
        "meta_inclination": 98.7393,
        "meta_ra_of_asc_node": 347.4505,
        "meta_arg_of_pericenter": 239.5341,
        "meta_mean_anomaly": 120.4918,
        "meta_ephemeris_type": 0,
        "meta_classification_type": "U",
        "meta_norad_cat_id": 29522,
        "meta_element_set_no": 999,
        "meta_rev_at_epoch": 98537,
        "meta_bstar": 0.00016690195,
        "meta_mean_motion_dot": 2.79e-06,
        "meta_mean_motion_ddot": 0,
        "tle_line1": "1 29522U 06050A   25341.96199320  .00000279  00000+0  16690-3 0  9997",
        "tle_line2": "2 29522  98.7393 347.4505 0009266 239.5341 120.4918 14.14916411985378"
      },
      "geometry": {
        "type": "Point",
        "coordinates": [
          3.13220670022248,
          -59.72552835605156
        ]
      }
    },
    {
      "type": "Feature",
      "properties": {
        "norad_id": 32958,
        "name": "FENGYUN 3A",
        "group": "weather",
        "lat": -58.0383323798841,
        "lon": -63.85334701337103,
        "alt_km": 828.695232463956,
        "timestamp": "2025-12-08T08:59:00.414575+00:00",
        "meta_object_name": "FENGYUN 3A",
        "meta_object_id": "2008-026A",
        "meta_epoch": "2025-12-07T23:06:39.656736",
        "meta_mean_motion": 14.19512133,
        "meta_eccentricity": 0.00081212,
        "meta_inclination": 98.6691,
        "meta_ra_of_asc_node": 281.5905,
        "meta_arg_of_pericenter": 325.4381,
        "meta_mean_anomaly": 34.6266,
        "meta_ephemeris_type": 0,
        "meta_classification_type": "U",
        "meta_norad_cat_id": 32958,
        "meta_element_set_no": 999,
        "meta_rev_at_epoch": 90827,
        "meta_bstar": 0.00012077091,
        "meta_mean_motion_dot": 2.11e-06,
        "meta_mean_motion_ddot": 0,
        "tle_line1": "1 32958U 08026A   25341.96295899  .00000211  00000+0  12077-3 0  9998",
        "tle_line2": "2 32958  98.6691 281.5905 0008121 325.4381  34.6266 14.19512133908279"
      },
      "geometry": {
        "type": "Point",
        "coordinates": [
          -63.85334701337103,
          -58.0383323798841
        ]
      }
    },
    {
      "type": "Feature",
      "properties": {
        "norad_id": 35491,
        "name": "GOES 14",
        "group": "weather",
        "lat": 0.39354369805086625,
        "lon": 103.78599524528487,
        "alt_km": 35798.18318467684,
        "timestamp": "2025-12-08T08:59:00.414593+00:00",
        "meta_object_name": "GOES 14",
        "meta_object_id": "2009-033A",
        "meta_epoch": "2025-12-07T21:40:49.783872",
        "meta_mean_motion": 1.00273001,
        "meta_eccentricity": 0.00041143,
        "meta_inclination": 1.1865,
        "meta_ra_of_asc_node": 85.4623,
        "meta_arg_of_pericenter": 154.032,
        "meta_mean_anomaly": 54.3217,
        "meta_ephemeris_type": 0,
        "meta_classification_type": "U",
        "meta_norad_cat_id": 35491,
        "meta_element_set_no": 999,
        "meta_rev_at_epoch": 467,
        "meta_bstar": 0,
        "meta_mean_motion_dot": -6.5e-07,
        "meta_mean_motion_ddot": 0,
        "tle_line1": "1 35491U 09033A   25341.90335398 -.00000065  00000+0  00000+0 0  9992",
        "tle_line2": "2 35491   1.1865  85.4623 0004114 154.0320  54.3217  1.00273001  4671"
      },
      "geometry": {
        "type": "Point",
        "coordinates": [
          103.78599524528487,
          0.39354369805086625
        ]
      }
    },
    {
      "type": "Feature",
      "properties": {
        "norad_id": 35951,
        "name": "DMSP 5D-3 F18 (USA 210)",
        "group": "weather",
        "lat": 10.834080928278398,
        "lon": 140.51206250826243,
        "alt_km": 845.240917915502,
        "timestamp": "2025-12-08T08:59:00.414609+00:00",
        "meta_object_name": "DMSP 5D-3 F18 (USA 210)",
        "meta_object_id": "2009-057A",
        "meta_epoch": "2025-12-07T22:00:17.296704",
        "meta_mean_motion": 14.1476449,
        "meta_eccentricity": 0.00121099,
        "meta_inclination": 98.8829,
        "meta_ra_of_asc_node": 318.3419,
        "meta_arg_of_pericenter": 75.2903,
        "meta_mean_anomaly": 284.9611,
        "meta_ephemeris_type": 0,
        "meta_classification_type": "U",
        "meta_norad_cat_id": 35951,
        "meta_element_set_no": 999,
        "meta_rev_at_epoch": 83254,
        "meta_bstar": 0.00022462782,
        "meta_mean_motion_dot": 3.89e-06,
        "meta_mean_motion_ddot": 0,
        "tle_line1": "1 35951U 09057A   25341.91686686  .00000389  00000+0  22463-3 0  9998",
        "tle_line2": "2 35951  98.8829 318.3419 0012109  75.2903 284.9611 14.14764490832540"
      },
      "geometry": {
        "type": "Point",
        "coordinates": [
          140.51206250826243,
          10.834080928278398
        ]
      }
    },
    {
      "type": "Feature",
      "properties": {
        "norad_id": 36411,
        "name": "EWS-G2 (GOES 15)",
        "group": "weather",
        "lat": -0.12693636140743816,
        "lon": -86.40767149881601,
        "alt_km": 35762.481325251014,
        "timestamp": "2025-12-08T08:59:00.414626+00:00",
        "meta_object_name": "EWS-G2 (GOES 15)",
        "meta_object_id": "2010-008A",
        "meta_epoch": "2025-12-07T22:49:38.694720",
        "meta_mean_motion": 1.00268517,
        "meta_eccentricity": 0.00059882,
        "meta_inclination": 0.8017,
        "meta_ra_of_asc_node": 86.0622,
        "meta_arg_of_pericenter": 172.5431,
        "meta_mean_anomaly": 222.2211,
        "meta_ephemeris_type": 0,
        "meta_classification_type": "U",
        "meta_norad_cat_id": 36411,
        "meta_element_set_no": 999,
        "meta_rev_at_epoch": 5772,
        "meta_bstar": 0,
        "meta_mean_motion_dot": 4.1e-07,
        "meta_mean_motion_ddot": 0,
        "tle_line1": "1 36411U 10008A   25341.95114230  .00000041  00000+0  00000+0 0  9997",
        "tle_line2": "2 36411   0.8017  86.0622 0005988 172.5431 222.2211  1.00268517 57723"
      },
      "geometry": {
        "type": "Point",
        "coordinates": [
          -86.40767149881601,
          -0.12693636140743816
        ]
      }
    }
  ]
}